STARLINK-2687
1 28466C 21040AQ  21325.10746843  .00005999  00000-0  40199-3 0  3252
2 28466  53.0572  37.7479 0001248  76.3643 160.4645 15.06389486    10
